NORAD_CAT_ID,OBJECT_NAME,OBJECT_TYPE,EPOCH,MEAN_MOTION,ECCENTRICITY,INCLINATION,RA_OF_ASC_NODE,ARG_OF_PERICENTER,MEAN_ANOMALY,BSTAR,MEAN_MOTION_DOT,MEAN_MOTION_DDOT,TLE_LINE0,TLE_LINE1,TLE_LINE2,SEMIMAJOR_AXIS,PERIOD,APOGEE,PERIGEE,DECAYED
52468.0,STARLINK-3864,PAYLOAD,2022-10-30 00:23:56,15.08845683,0.0001720999999999,53.2173,165.8723,53.8507,306.2644,9.5052e-05,1.225e-05,0.0,0 STARLINK-3864,1 52468U 22049T   22303.01662154  .00001225  00000-0  95052-4 0  9992,2 52468  53.2173 165.8723 0001721  53.8507 306.2644 15.08845683 27067,6917.863,95.437,540.919,538.5369999999998,0.0
52468.0,STARLINK-3864,PAYLOAD,2022-10-30 21:03:57,15.08838303,0.0001779,53.217,162.0061,48.7914,311.3232,1.3588e-05,-7.2e-07,0.0,0 STARLINK-3864,1 52468U 22049T   22303.87774686 -.00000072  00000-0  13588-4 0  9994,2 52468  53.2170 162.0061 0001779  48.7914 311.3232 15.08838303 27191,6917.886,95.438,540.981,538.52,0.0
52468.0,STARLINK-3864,PAYLOAD,2022-10-31 01:50:06,15.08837777,0.0001745,53.2169,161.1136,49.3002,310.8141,-9.569e-07,-3.03e-06,0.0,0 STARLINK-3864,1 52468U 22049T   22304.07646725 -.00000303  00000-0 -95690-6 0  9993,2 52468  53.2169 161.1136 0001745  49.3002 310.8141 15.08837777 27221,6917.887,95.438,540.9590000000002,538.545,0.0
52468.0,STARLINK-3864,PAYLOAD,2022-10-31 20:54:44,15.08833995,0.0001779,53.2166,157.5454,51.5773,308.5379,-1.2499e-05,-4.87e-06,0.0,0 STARLINK-3864,1 52468U 22049T   22304.87135203 -.00000487  00000-0 -12499-4 0  9992,2 52468  53.2166 157.5454 0001779  51.5773 308.5379 15.08833995 27503,6917.899,95.438,540.994,538.533,0.0
52468.0,STARLINK-3864,PAYLOAD,2022-11-01 01:40:54,15.08836178,0.0001786999999999,53.2165,156.6534,49.1891,310.9256,-3.0576999999999995e-05,-7.75e-06,0.0,0 STARLINK-3864,1 52468U 22049T   22305.07007175 -.00000775  00000-0 -30577-4 0  9998,2 52468  53.2165 156.6534 0001787  49.1891 310.9256 15.08836178 27376,6917.892,95.438,540.993,538.521,0.0
52468.0,STARLINK-3864,PAYLOAD,2022-11-01 15:59:21,15.08838341,0.0001609,53.2164,153.9767,48.0767,312.0362,0.00015724,2.215e-05,0.0,0 STARLINK-3864,1 52468U 22049T   22305.66622634  .00002215  00000-0  15724-3 0  9991,2 52468  53.2164 153.9767 0001609  48.0767 312.0362 15.08838341 27461,6917.885,95.438,540.864,538.637,0.0
52468.0,STARLINK-3864,PAYLOAD,2022-11-02 01:31:41,15.08830531,0.000179,53.2165,152.1927,48.926,311.1886,6.9643e-05,8.2e-06,0.0,0 STARLINK-3864,1 52468U 22049T   22306.06367595  .00000820  00000-0  69643-4 0  9998,2 52468  53.2165 152.1927 0001790  48.9260 311.1886 15.08830531 27520,6917.909000000002,95.438,541.013,538.536,0.0
52468.0,STARLINK-3864,PAYLOAD,2022-11-02 20:36:20,15.08824816,0.0001737,53.217,148.6242,44.581,315.5322,1.5048e-05,-4.9e-07,0.0,0 STARLINK-3864,1 52468U 22049T   22306.85856640 -.00000049  00000-0  15048-4 0  9993,2 52468  53.2170 148.6242 0001737  44.5810 315.5322 15.08824816 27803,6917.927,95.439,540.993,538.59,0.0
52468.0,STARLINK-3864,PAYLOAD,2022-11-03 06:08:38,15.08831316,0.0001679,53.2171,146.84,44.6435,315.4692,8.896900000000001e-06,-1.46e-06,0.0,0 STARLINK-3864,1 52468U 22049T   22307.25600506 -.00000146  00000-0  88969-5 0  9997,2 52468  53.2171 146.8400 0001679  44.6435 315.4692 15.08831316 27867,6917.906999999997,95.438,540.933,538.61,0.0
52468.0,STARLINK-3864,PAYLOAD,2022-11-03 15:40:57,15.08833222,0.0001739,53.217,145.0557,46.4483,313.6654,5.3649e-05,5.66e-06,0.0,0 STARLINK-3864,1 52468U 22049T   22307.65344440  .00000566  00000-0  53649-4 0  9994,2 52468  53.2170 145.0557 0001739  46.4483 313.6654 15.08833222 27765,6917.901,95.438,540.969,538.563,0.0
52468.0,STARLINK-3864,PAYLOAD,2022-11-03 23:37:52,15.08839866,0.000183,53.2167,143.569,49.4031,310.7121,0.00011504,1.543e-05,0.0,0 STARLINK-3864,1 52468U 22049T   22307.98463959  .00001543  00000-0  11504-3 0  9996,2 52468  53.2167 143.5690 0001830  49.4031 310.7121 15.08839866 27976,6917.880999999999,95.438,541.012,538.48,0.0
52468.0,STARLINK-3864,PAYLOAD,2022-11-04 05:59:25,15.08840697,0.0001831,53.2169,142.3795,48.9094,311.2056,0.00014461,2.014e-05,0.0,0 STARLINK-3864,1 52468U 22049T   22308.24959934  .00002014  00000-0  14461-3 0  9998,2 52468  53.2169 142.3795 0001831  48.9094 311.2056 15.08840697 27859,6917.878000000002,95.438,541.01,538.477,0.0
52468.0,STARLINK-3864,PAYLOAD,2022-11-04 15:31:43,15.08843199,0.0001839,53.2165,140.5952,49.7953,310.32,0.00023212,3.408e-05,0.0,0 STARLINK-3864,1 52468U 22049T   22308.64703563  .00003408  00000-0  23212-3 0  9999,2 52468  53.2165 140.5952 0001839  49.7953 310.3200 15.08843199 27919,6917.871,95.437,541.008,538.4630000000002,0.0
52468.0,STARLINK-3864,PAYLOAD,2022-11-05 12:11:45,15.08840885,0.0002061,53.2151,136.7297,50.7857,309.3318,8.0127e-05,9.87e-06,0.0,0 STARLINK-3864,1 52468U 22049T   22309.50816022  .00000987  00000-0  80127-4 0  9998,2 52468  53.2151 136.7297 0002061  50.7857 309.3318 15.08840885 28206,6917.878000000002,95.437,541.168,538.317,0.0
52468.0,STARLINK-3864,PAYLOAD,2022-11-05 15:22:31,15.08835462,0.0001834,53.216,136.135,47.0162,313.0983,-3.8019e-05,-8.93e-06,0.0,0 STARLINK-3864,1 52468U 22049T   22309.64064286 -.00000893  00000-0 -38019-4 0  9991,2 52468  53.2160 136.1350 0001834  47.0162 313.0983 15.08835462 28064,6917.894,95.438,541.028,538.491,0.0
52468.0,STARLINK-3864,PAYLOAD,2022-11-06 00:54:50,15.08838701,0.0001961,53.2163,134.3505,43.3638,316.7508,-8.223200000000001e-06,-4.19e-06,0.0,0 STARLINK-3864,1 52468U 22049T   22310.03808641 -.00000419  00000-0 -82232-5 0  9998,2 52468  53.2163 134.3505 0001961  43.3638 316.7508 15.08838701 28283,6917.884,95.438,541.106,538.393,0.0
52468.0,STARLINK-3864,PAYLOAD,2022-11-06 05:40:59,15.0886636,0.0001909,53.2165,133.4584,45.5215,314.5933,-0.00034906,-5.843e-05,0.0,0 STARLINK-3864,1 52468U 22049T   22310.23679644 -.00005843  00000-0 -34906-3 0  9998,2 52468  53.2165 133.4584 0001909  45.5215 314.5933 15.08866360 28313,6917.8,95.436,540.985,538.344,0.0
52468.0,STARLINK-3864,PAYLOAD,2022-11-06 19:59:27,15.08843748,0.0001809,53.217,130.7821,46.525,313.5892,7.806399999999999e-05,9.55e-06,0.0,0 STARLINK-3864,1 52468U 22049T   22310.83295879  .00000955  00000-0  78064-4 0  9999,2 52468  53.2170 130.7821 0001809  46.5250 313.5892 15.08843748 28400,6917.869000000002,95.437,540.985,538.482,0.0
52468.0,STARLINK-3864,PAYLOAD,2022-11-07 15:04:05,15.08838184,0.00018,53.2169,127.2134,48.3634,311.7512,0.00010193,1.334e-05,0.0,0 STARLINK-3864,1 52468U 22049T   22311.62784138  .00001334  00000-0  10193-3 0  9998,2 52468  53.2169 127.2134 0001800  48.3634 311.7512 15.08838184 28523,6917.886,95.438,540.996,538.506,0.0
52468.0,STARLINK-3864,PAYLOAD,2022-11-08 18:05:37,15.08850579,0.0001892,53.217,122.1583,49.0426,311.073,0.00013191,1.812e-05,0.0,0 STARLINK-3864,1 52468U 22049T   22312.75391074  .00001812  00000-0  13191-3 0  9998,2 52468  53.2170 122.1583 0001892  49.0426 311.0730 15.08850579 28690,6917.848000000001,95.437,541.0219999999998,538.404,0.0
52468.0,STARLINK-3864,PAYLOAD,2022-11-08 21:16:23,15.08854298,0.00019,53.217,121.5636,48.6586,311.4569,0.00012528,1.707e-05,0.0,0 STARLINK-3864,1 52468U 22049T   22312.88638791  .00001707  00000-0  12528-3 0  9998,2 52468  53.2170 121.5636 0001900  48.6586 311.4569 15.08854298 28555,6917.837,95.437,541.016,538.387,0.0
52468.0,STARLINK-3864,PAYLOAD,2022-11-09 14:45:39,15.08837652,0.0001979,53.2168,118.2929,50.0624,310.0542,7.140199999999999e-05,8.48e-06,0.0,0 STARLINK-3864,1 52468U 22049T   22313.61503870  .00000848  00000-0  71402-4 0  9991,2 52468  53.2168 118.2929 0001979  50.0624 310.0542 15.08837652 28669,6917.888000000001,95.438,541.122,538.384,0.0
52468.0,STARLINK-3864,PAYLOAD,2022-11-09 17:56:25,15.08835742,0.0001833,53.2151,117.6968,43.6332,316.4804,-1.173e-05,-4.75e-06,0.0,0 STARLINK-3864,1 52468U 22049T   22313.74751824 -.00000475  00000-0 -11730-4 0  9995,2 52468  53.2151 117.6968 0001833  43.6332 316.4804 15.08835742 28849,6917.893,95.438,541.026,538.49,0.0
52468.0,STARLINK-3864,PAYLOAD,2022-11-09 21:07:11,15.08837697,0.0001922,53.2157,117.1035,47.4105,312.7049,9.0172e-06,-1.45e-06,0.0,0 STARLINK-3864,1 52468U 22049T   22313.87999775 -.00000145  00000-0  90172-5 0  9999,2 52468  53.2157 117.1035 0001922  47.4105 312.7049 15.08837697 28700,6917.887,95.438,541.082,538.423,0.0
52468.0,STARLINK-3864,PAYLOAD,2022-11-10 03:28:44,15.08839309,0.0001894,53.214,115.9136,46.2826,313.8322,-2.1461e-05,-6.3e-06,0.0,0 STARLINK-3864,1 52468U 22049T   22314.14495629 -.00000630  00000-0 -21461-4 0  9993,2 52468  53.2140 115.9136 0001894  46.2826 313.8322 15.08839309 28747,6917.8830000000025,95.438,541.058,538.437,0.0
52468.0,STARLINK-3864,PAYLOAD,2022-11-10 17:47:12,15.08847155,0.0001886,53.216,113.2367,44.7009,315.4134,-4.0517e-05,-9.33e-06,0.0,0 STARLINK-3864,1 52468U 22049T   22314.74111244 -.00000933  00000-0 -40517-4 0  9996,2 52468  53.2160 113.2367 0001886  44.7009 315.4134 15.08847155 28997,6917.859,95.437,541.028,538.419,0.0
52468.0,STARLINK-3864,PAYLOAD,2022-11-10 19:22:35,15.08845117,0.000199,53.2164,112.9397,48.6696,311.4467,5.426e-05,5.76e-06,0.0,0 STARLINK-3864,1 52468U 22049T   22314.80735358  .00000576  00000-0  54260-4 0  9992,2 52468  53.2164 112.9397 0001990  48.6696 311.4467 15.08845117 28846,6917.865,95.437,541.106,538.3530000000002,0.0
52468.0,STARLINK-3864,PAYLOAD,2022-11-11 09:41:04,15.08834112,0.0002046,53.218,110.2618,57.1239,302.995,-0.00011982,-2.194e-05,0.0,0 STARLINK-3864,1 52468U 22049T   22315.40351922 -.00002194  00000-0 -11982-3 0  9993,2 52468  53.2180 110.2618 0002046  57.1239 302.9950 15.08834112 28937,6917.898,95.438,541.179,538.3480000000002,0.0
52468.0,STARLINK-3864,PAYLOAD,2022-11-11 12:51:50,15.08830415,0.0001743,53.217,109.668,56.9954,303.1206,4.904100000000002e-05,4.92e-06,0.0,0 STARLINK-3864,1 52468U 22049T   22315.53600285  .00000492  00000-0  49041-4 0  9991,2 52468  53.2170 109.6680 0001743  56.9954 303.1206 15.08830415 29111,6917.91,95.438,540.98,538.569,0.0
